[
    {
        "Altitude(m)": 705236.1436893608,
        "Argument of Periapsis(deg)": 0.005695060593313534,
        "Eccentricity": 0.0,
        "Inclination(deg)": 45.0,
        "Latitude(deg)": 35.45514959793526,
        "Longitude(deg)": -40.275839007736856,
        "Mean Anomaly(deg)": 54.8575083237404,
        "RAAN(deg)": 14.994624029270897,
        "Satellite Name": "Constellation 1 69",
        "Satellite Number": 69,
        "Semi-Major Axis(m)": 7083131.272910544,
        "Time(s)": 95
    },
    {
        "Altitude(m)": 705242.0644970965,
        "Argument of Periapsis(deg)": 0.00575500859955894,
        "Eccentricity": 0.0,
        "Inclination(deg)": 45.0,
        "Latitude(deg)": 35.48554854262283,
        "Longitude(deg)": -40.215461628915826,
        "Mean Anomaly(deg)": 54.91820946399032,
        "RAAN(deg)": 14.994567440105328,
        "Satellite Name": "Constellation 1 69",
        "Satellite Number": 69,
        "Semi-Major Axis(m)": 7083131.272910544,
        "Time(s)": 96
    },
    {
        "Altitude(m)": 705247.9831670248,
        "Argument of Periapsis(deg)": 0.005814956605804345,
        "Eccentricity": 0.0,
        "Inclination(deg)": 45.0,
        "Latitude(deg)": 35.515912857905505,
        "Longitude(deg)": -40.15503555941463,
        "Mean Anomaly(deg)": 54.97891060424021,
        "RAAN(deg)": 14.994510850939758,
        "Satellite Name": "Constellation 1 69",
        "Satellite Number": 69,
        "Semi-Major Axis(m)": 7083131.272910544,
        "Time(s)": 97
    },
    {
        "Altitude(m)": 705253.8996616753,
        "Argument of Periapsis(deg)": 0.00587490461204975,
        "Eccentricity": 0.0,
        "Inclination(deg)": 45.0,
        "Latitude(deg)": 35.54624247968931,
        "Longitude(deg)": -40.09456093167202,
        "Mean Anomaly(deg)": 55.0396117444901,
        "RAAN(deg)": 14.99445426177419,
        "Satellite Name": "Constellation 1 69",
        "Satellite Number": 69,
        "Semi-Major Axis(m)": 7083131.272910544,
        "Time(s)": 98
    },
    {
        "Altitude(m)": 705259.813943588,
        "Argument of Periapsis(deg)": 0.005934852618295156,
        "Eccentricity": 0.0,
        "Inclination(deg)": 45.0,
        "Latitude(deg)": 35.57653734381997,
        "Longitude(deg)": -40.03403771025243,
        "Mean Anomaly(deg)": 55.100312884740006,
        "RAAN(deg)": 14.994397672608617,
        "Satellite Name": "Constellation 1 69",
        "Satellite Number": 69,
        "Semi-Major Axis(m)": 7083131.272910544,
        "Time(s)": 99
    },
    {
        "Altitude(m)": 705265.725975342,
        "Argument of Periapsis(deg)": 0.005994800624540561,
        "Eccentricity": 0.0,
        "Inclination(deg)": 45.0,
        "Latitude(deg)": 35.60679738608277,
        "Longitude(deg)": -39.973465859944426,
        "Mean Anomaly(deg)": 55.161014024989896,
        "RAAN(deg)": 14.99434108344305,
        "Satellite Name": "Constellation 1 69",
        "Satellite Number": 69,
        "Semi-Major Axis(m)": 7083131.272910544,
        "Time(s)": 100
    },
    {
        "Altitude(m)": 705271.6357195345,
        "Argument of Periapsis(deg)": 0.006054748630785968,
        "Eccentricity": 0.0,
        "Inclination(deg)": 45.0,
        "Latitude(deg)": 35.637022542202956,
        "Longitude(deg)": -39.91284534576179,
        "Mean Anomaly(deg)": 55.221715165239814,
        "RAAN(deg)": 14.994284494277482,
        "Satellite Name": "Constellation 1 69",
        "Satellite Number": 69,
        "Semi-Major Axis(m)": 7083131.272910544,
        "Time(s)": 101
    },
    {
        "Altitude(m)": 705277.5431387944,
        "Argument of Periapsis(deg)": 0.006114696637031373,
        "Eccentricity": 0.0,
        "Inclination(deg)": 45.0,
        "Latitude(deg)": 35.66721274784573,
        "Longitude(deg)": -39.85217613294492,
        "Mean Anomaly(deg)": 55.282416305489704,
        "RAAN(deg)": 14.99422790511191,
        "Satellite Name": "Constellation 1 69",
        "Satellite Number": 69,
        "Semi-Major Axis(m)": 7083131.272910544,
        "Time(s)": 102
    },
    {
        "Altitude(m)": 705283.4481957811,
        "Argument of Periapsis(deg)": 0.006174644643276778,
        "Eccentricity": 0.0,
        "Inclination(deg)": 45.0,
        "Latitude(deg)": 35.69736793861665,
        "Longitude(deg)": -39.79145818696206,
        "Mean Anomaly(deg)": 55.343117445739594,
        "RAAN(deg)": 14.99417131594634,
        "Satellite Name": "Constellation 1 69",
        "Satellite Number": 69,
        "Semi-Major Axis(m)": 7083131.272910544,
        "Time(s)": 103
    },
    {
        "Altitude(m)": 705289.3508531768,
        "Argument of Periapsis(deg)": 0.006234592649522184,
        "Eccentricity": 0.0,
        "Inclination(deg)": 45.0,
        "Latitude(deg)": 35.72748805006156,
        "Longitude(deg)": -39.73069164160751,
        "Mean Anomaly(deg)": 55.4038185859895,
        "RAAN(deg)": 14.994114726780772,
        "Satellite Name": "Constellation 1 69",
        "Satellite Number": 69,
        "Semi-Major Axis(m)": 7083131.272910544,
        "Time(s)": 104
    },
    {
        "Altitude(m)": 705295.2510736928,
        "Argument of Periapsis(deg)": 0.00629454065576759,
        "Eccentricity": 0.0,
        "Inclination(deg)": 45.0,
        "Latitude(deg)": 35.757573017667674,
        "Longitude(deg)": -39.66987612661537,
        "Mean Anomaly(deg)": 55.4645197262394,
        "RAAN(deg)": 14.994058137615202,
        "Satellite Name": "Constellation 1 69",
        "Satellite Number": 69,
        "Semi-Major Axis(m)": 7083131.272910544,
        "Time(s)": 105
    },
    {
        "Altitude(m)": 705301.1488200695,
        "Argument of Periapsis(deg)": 0.006354488662012995,
        "Eccentricity": 0.0,
        "Inclination(deg)": 45.0,
        "Latitude(deg)": 35.78762277686252,
        "Longitude(deg)": -39.60901177624217,
        "Mean Anomaly(deg)": 55.52522086648929,
        "RAAN(deg)": 14.994001548449633,
        "Satellite Name": "Constellation 1 69",
        "Satellite Number": 69,
        "Semi-Major Axis(m)": 7083131.272910544,
        "Time(s)": 106
    },
    {
        "Altitude(m)": 705307.0440550745,
        "Argument of Periapsis(deg)": 0.006414436668258401,
        "Eccentricity": 0.0,
        "Inclination(deg)": 45.0,
        "Latitude(deg)": 35.81763726301505,
        "Longitude(deg)": -39.54809855688053,
        "Mean Anomaly(deg)": 55.585922006739196,
        "RAAN(deg)": 14.993944959284063,
        "Satellite Name": "Constellation 1 69",
        "Satellite Number": 69,
        "Semi-Major Axis(m)": 7083131.272910544,
        "Time(s)": 107
    },
    {
        "Altitude(m)": 705312.9367415002,
        "Argument of Periapsis(deg)": 0.0064743846745038075,
        "Eccentricity": 0.0,
        "Inclination(deg)": 45.0,
        "Latitude(deg)": 35.84761641143558,
        "Longitude(deg)": -39.48713643515757,
        "Mean Anomaly(deg)": 55.6466231469891,
        "RAAN(deg)": 14.993888370118494,
        "Satellite Name": "Constellation 1 69",
        "Satellite Number": 69,
        "Semi-Major Axis(m)": 7083131.272910544,
        "Time(s)": 108
    },
    {
        "Altitude(m)": 705318.8268421759,
        "Argument of Periapsis(deg)": 0.0065343326807492125,
        "Eccentricity": 0.0,
        "Inclination(deg)": 45.0,
        "Latitude(deg)": 35.87756015737616,
        "Longitude(deg)": -39.42612537793602,
        "Mean Anomaly(deg)": 55.70732428723899,
        "RAAN(deg)": 14.993831780952926,
        "Satellite Name": "Constellation 1 69",
        "Satellite Number": 69,
        "Semi-Major Axis(m)": 7083131.272910544,
        "Time(s)": 109
    },
    {
        "Altitude(m)": 705324.714319957,
        "Argument of Periapsis(deg)": 0.0065942806869946176,
        "Eccentricity": 0.0,
        "Inclination(deg)": 45.0,
        "Latitude(deg)": 35.907468436030605,
        "Longitude(deg)": -39.365065352315554,
        "Mean Anomaly(deg)": 55.768025427488894,
        "RAAN(deg)": 14.993775191787355,
        "Satellite Name": "Constellation 1 69",
        "Satellite Number": 69,
        "Semi-Major Axis(m)": 7083131.272910544,
        "Time(s)": 110
    },
    {
        "Altitude(m)": 705330.5991377182,
        "Argument of Periapsis(deg)": 0.006654228693240024,
        "Eccentricity": 0.0,
        "Inclination(deg)": 45.0,
        "Latitude(deg)": 35.937341182534745,
        "Longitude(deg)": -39.30395649373114,
        "Mean Anomaly(deg)": 55.8287265677388,
        "RAAN(deg)": 14.993718602621787,
        "Satellite Name": "Constellation 1 69",
        "Satellite Number": 69,
        "Semi-Major Axis(m)": 7083131.272910544,
        "Time(s)": 111
    },
    {
        "Altitude(m)": 705336.4812583757,
        "Argument of Periapsis(deg)": 0.006714176699485429,
        "Eccentricity": 0.0,
        "Inclination(deg)": 45.0,
        "Latitude(deg)": 35.96717833196735,
        "Longitude(deg)": -39.242798433566655,
        "Mean Anomaly(deg)": 55.8894277079887,
        "RAAN(deg)": 14.993662013456214,
        "Satellite Name": "Constellation 1 69",
        "Satellite Number": 69,
        "Semi-Major Axis(m)": 7083131.272910544,
        "Time(s)": 112
    },
    {
        "Altitude(m)": 705342.360644869,
        "Argument of Periapsis(deg)": 0.006774124705730835,
        "Eccentricity": 0.0,
        "Inclination(deg)": 45.0,
        "Latitude(deg)": 35.99697981934912,
        "Longitude(deg)": -39.18159130773754,
        "Mean Anomaly(deg)": 55.95012884823859,
        "RAAN(deg)": 14.993605424290646,
        "Satellite Name": "Constellation 1 69",
        "Satellite Number": 69,
        "Semi-Major Axis(m)": 7083131.272910544,
        "Time(s)": 113
    }
]